2022-169C               
1 54701U 22169C   23007.12540610  .00000204  00000+0  89419-4 0  9998
2 54701  59.9580  69.0082 0095803  61.1665 299.8973 14.49507304  3737
2022-169D               
1 54702U 22169D   23007.07242880  .00000756  00000+0  35042-3 0  9995
2 54702  59.9991  72.1681 0006167 283.1357  76.8980 14.29163913  3680
SZ-14 MODULE            
1 54704U 22060G   23007.15497492  .00028826  00000+0  32780-3 0  9991
2 54704  41.4885  57.1034 0009219 300.0222 152.6499 15.61611047  5016
GALAXY 35 (G-35)        
1 54741U 22170A   23007.14956372  .00000145  00000+0  00000+0 0  9990
2 54741   0.0136  85.5184 0002379 280.3066   4.4160  1.00274139   305
GALAXY 36 (G-36)        
1 54742U 22170B   23006.79093389  .00000145  00000+0  00000+0 0  9991
2 54742   0.0252  87.4883 0002237 178.2951 335.0745  1.00270577   161
METEOSAT-12 (MTG-1)     
1 54743U 22170C   23006.89184563 -.00000017  00000+0  00000+0 0  9997
2 54743   0.9465 298.5903 0000293 148.0915 337.1676  1.00272327   374
ARIANE 5 DEB [SYLDA]    
1 54744U 22170D   23006.60718925  .00026393  00000+0  62329-2 0  9991
2 54744   5.9621 209.0483 7274601 197.6575 108.4938  2.29336984   540
ARIANE 5 R/B            
1 54745U 22170E   23004.35084373  .00005853  00000+0  10267-2 0  9997
2 54745   5.7240 211.9332 7276227 193.7260 122.7793  2.29791296   498
2022-171A               
1 54746U 22171A   23007.21646991 -.00000038  00000+0  00000+0 0  9999
2 54746  35.0026 187.8505 0008868 125.4202 206.5935 15.22532753  3574
2022-171B               
1 54747U 22171B   23007.19756944  .00023662  00000+0  94266-3 0  9995
2 54747  34.9937 187.7045 0006057 108.6957 214.2258 15.24309321  3546
2022-171C               
1 54748U 22171C   23006.92023382 -.00000037  00000+0  00000+0 0  9990
2 54748  34.9889 189.6754 0004141 165.0765 345.8726 15.22352910  3504
2022-171D               
1 54749U 22171D   23007.19182870  .00026640  00000+0  10464-2 0  9994
2 54749  34.9947 187.6538 0006317 118.7871 204.7234 15.24760802  3544
2022-171E               
1 54750U 22171E   23006.86224537 -.00000037  00000+0  00000+0 0  9991
2 54750  34.9903 190.0050 0011668 108.1593  99.2742 15.22423457  3488
2022-167Q               
1 54751U 22167Q   23007.10419890  .00008225  00000+0  50981-3 0  9996
2 54751  97.5370 146.6271 0014430 178.1263 296.9867 15.09920611  4007
SHIYAN 21               
1 54752U 22172A   23007.14866708  .00009392  00000+0  33765-3 0  9998
2 54752  36.0026  17.9425 0012376 138.8795 298.5725 15.27936815  3356
SWOT                    
1 54754U 22173A   23007.03448886  .00134774  00000+0  76186-1 0  9997
2 54754  77.5910 296.4950 0006604 120.0591 239.9838 14.09179457  3030
O3B MPOWER-A F1         
1 54755U 22174A   22356.18260191  .00000047  00000+0  00000+0 0  9997
2 54755   9.6319 253.0871 1859317 195.2651 337.7567  7.25479946   387
O3B MPOWER-A F2         
1 54756U 22174B   23006.09920247  .00000048  00000+0  00000+0 0  9997
2 54756   9.6116 231.5843 1870608 237.6616 102.8694  7.26306050  1469
FALCON 9 R/B            
1 54757U 22174C   23005.96171680  .00000052  00000+0  19909-2 0  9998
2 54757   9.6168 231.8087 1869398 237.2479 103.3751  7.26306050  1434
STARLINK-5464           
1 54758U 22175A   23006.92709970  .00053458  00000+0  38396-3 0  9996
2 54758  53.2122 206.6239 0002278  36.2568 323.8606 15.73132654  5069
STARLINK-5215           
1 54759U 22175B   23006.92675712  .00022975  00000+0  16781-3 0  9997
2 54759  53.2117 206.6188 0002171  43.3080 316.8110 15.73179138  5067
STARLINK-5220           
1 54760U 22175C   23007.25001157 -.01198066  00000+0 -16005-1 0  9997
2 54760  53.2171 205.2548 0001130  68.1878 206.0461 15.60300515  2953
STARLINK-5202           
1 54761U 22175D   23006.91667824 -.01150924  00000+0 -14845-1 0  9990
2 54761  53.2131 206.8818 0001260  81.9230 117.1738 15.61092175  1304
STARLINK-5214           
1 54762U 22175E   23007.25001157 -.01198259  00000+0 -15964-1 0  9996
2 54762  53.2171 205.2484 0001139  85.4844 191.8124 15.60371410  2957
STARLINK-5191           
1 54763U 22175F   23007.25001157 -.01197950  00000+0 -15982-1 0  9994
2 54763  53.2171 205.2505 0001174  72.5119 203.5270 15.60334562  2953
STARLINK-5458           
1 54764U 22175G   23006.91667824 -.01198762  00000+0 -15402-1 0  9995
2 54764  53.2173 206.8642 0001322  87.0692 118.6719 15.61305042  1301
STARLINK-5466           
1 54765U 22175H   23007.25001157 -.01195782  00000+0 -15906-1 0  9993
2 54765  53.2171 205.2453 0001138  76.7754 201.7732 15.60406070  2966
STARLINK-5471           
1 54766U 22175J   23007.25001157 -.01193889  00000+0 -15809-1 0  9992
2 54766  53.2171 205.2382 0001097  67.5503 214.8303 15.60519006  2954
STARLINK-5472           
1 54767U 22175K   23006.91667824 -.01146906  00000+0 -14623-1 0  9995
2 54767  53.2133 206.8617 0001212  75.6573 133.7463 15.61380308  1303
STARLINK-5444           
1 54768U 22175L   23006.92581131  .00017737  00000+0  13069-3 0  9994
2 54768  53.2127 206.6173 0002134  54.6662 305.4558 15.73170346  5064
STARLINK-5404           
1 54769U 22175M   23007.25001157 -.01196141  00000+0 -15866-1 0  9992
2 54769  53.2171 205.2406 0001097  73.9193 207.1418 15.60480134  2951
STARLINK-5448           
1 54770U 22175N   23006.92561394  .00031388  00000+0  22755-3 0  9996
2 54770  53.2120 206.6169 0002702  68.0993 292.0314 15.73164000  5063
STARLINK-5451           
1 54771U 22175P   23006.92591728  .00056335  00000+0  40293-3 0  9997
2 54771  53.2127 206.6168 0001716  42.9221 317.1933 15.73210498  2908
STARLINK-5452           
1 54772U 22175Q   23006.92551297  .00022187  00000+0  16203-3 0  9997
2 54772  53.2141 206.6106 0000521  43.1200 316.9861 15.73206782  2908
STARLINK-5453           
1 54773U 22175R   23007.25001157 -.01194980  00000+0 -15779-1 0  9999
2 54773  53.2171 205.2306 0001477  38.3008 247.7223 15.60590915  2950
STARLINK-5454           
1 54774U 22175S   23006.92518420  .00021221  00000+0  15546-3 0  9997
2 54774  53.2122 206.6126 0002737  41.2190 318.9037 15.73164949  2904
STARLINK-5465           
1 54775U 22175T   23006.91667824 -.01198109  00000+0 -15288-1 0  9994
2 54775  53.2173 206.8476 0001176  78.7590 135.2744 15.61481319  2899
STARLINK-5470           
1 54776U 22175U   23007.25001157 -.01197018  00000+0 -15752-1 0  9998
2 54776  53.2131 205.2259 0000960  80.0557 211.3697 15.60688371  2951
STARLINK-5468           
1 54777U 22175V   23007.25001157 -.01195941  00000+0 -15754-1 0  9994
2 54777  53.2171 205.2235 0001134  61.9584 227.6249 15.60657896  2953
STARLINK-5450           
1 54778U 22175W   23006.92478082  .00047575  00000+0  33845-3 0  9992
2 54778  53.2126 206.6083 0000558  74.6454 285.4627 15.73408224  2906
STARLINK-5447           
1 54779U 22175X   23006.92496607  .00045825  00000+0  32921-3 0  9996
2 54779  53.2122 206.6076 0001713  33.9874 326.1256 15.73194661  2901
STARLINK-5449           
1 54780U 22175Y   23007.05042591  .00089930  00000+0  63635-3 0  9993
2 54780  53.2128 205.9699 0000741  66.0117 294.0981 15.73273053  2922
STARLINK-5443           
1 54781U 22175Z   23006.92482792  .00065636  00000+0  47212-3 0  9990
2 54781  53.2133 206.6095 0001006  71.4424 288.6705 15.73015863  2907
STARLINK-5437           
1 54782U 22175AA  23006.57723941  .00001490  00000+0  15062-4 0  9993
2 54782  53.2140 207.9791 0001828  61.9747 298.1458 15.73161312  5014
STARLINK-5439           
1 54783U 22175AB  23006.92467259  .00060278  00000+0  43026-3 0  9999
2 54783  53.2129 206.6069 0000645  56.0899 304.0183 15.73230821  2904
STARLINK-5442           
1 54784U 22175AC  23006.91667824 -.01146120  00000+0 -14519-1 0  9996
2 54784  53.2138 206.8398 0001125  92.8042 128.2265 15.61544645  1303
STARLINK-5440           
1 54785U 22175AD  23006.95739293  .00046011  00000+0  33059-3 0  9998
2 54785  53.2128 206.0857 0001863  86.7603 273.3630 15.73189379  2917
STARLINK-5438           
1 54786U 22175AE  23006.92392201  .00040151  00000+0  28952-3 0  9995
2 54786  53.2126 206.6030 0001694  57.9268 302.1916 15.73167460  2908
STARLINK-5441           
1 54787U 22175AF  23007.25001157 -.01196154  00000+0 -15697-1 0  9998
2 54787  53.2171 205.2095 0001116  70.5830 226.0937 15.60756646  2958
STARLINK-5399           
1 54788U 22175AG  23006.92369281  .00037778  00000+0  27243-3 0  9992
2 54788  53.2131 206.6021 0000711  84.6618 275.4484 15.73195583  2900
STARLINK-5446           
1 54789U 22175AH  23007.25001157 -.00749798  18507-3 -20126-2 0  9996
2 54789  53.2174 202.9051 0011943 153.6503 187.1521 15.93555212  2978
STARLINK-5445           
1 54790U 22175AJ  23006.91667824 -.00038206  00000+0 -26886-3 0  9999
2 54790  53.2130 206.6359 0001896  20.1106 301.3973 15.73212772  2900
STARLINK-5425           
1 54791U 22175AK  23006.92404135  .00026540  00000+0  19287-3 0  9998
2 54791  53.2137 206.6015 0000481  75.0007 285.1066 15.73205327  2905
STARLINK-5431           
1 54792U 22175AL  23007.25001157 -.01194937  00000+0 -15641-1 0  9990
2 54792  53.2171 205.1946 0001540  29.4245 274.8493 15.60815843  2955
STARLINK-5433           
1 54793U 22175AM  23006.92120684  .00049100  00000+0  35267-3 0  9997
2 54793  53.2146 206.5844 0001547  30.3251 329.7858 15.73169561  2908
STARLINK-5392           
1 54794U 22175AN  23007.25001157 -.01202115  00000+0 -15724-1 0  9992
2 54794  53.2171 205.1922 0001090  74.5922 230.8757 15.60854915  2952
STARLINK-5436           
1 54795U 22175AP  23007.05063789  .00022195  00000+0  16210-3 0  9998
2 54795  53.2125 205.9733 0001279  52.1961 307.9175 15.73205927  2928
STARLINK-5415           
1 54796U 22175AQ  23006.92288445  .00020822  00000+0  15238-3 0  9996
2 54796  53.2138 206.5964 0000619 123.4462 236.6617 15.73203354  2900
STARLINK-5435           
1 54797U 22175AR  23007.25001157 -.01197795  00000+0 -15709-1 0  9995
2 54797  53.2127 205.2001 0000909  77.5476 225.5603 15.60777852  2955
